OBJECT_NAME,OBJECT_ID,EPOCH,MEAN_MOTION,ECCENTRICITY,INCLINATION,RA_OF_ASC_NODE,ARG_OF_PERICENTER,MEAN_ANOMALY,EPHEMERIS_TYPE,CLASSIFICATION_TYPE,NORAD_CAT_ID,ELEMENT_SET_NO,REV_AT_EPOCH,BSTAR,MEAN_MOTION_DOT,MEAN_MOTION_DDOT
STARLINK-32356,2024-154U,2026-06-13T19:09:32.248224,15.31698886,.0001114,53.1602,197.1406,91.2459,268.8670,0,U,60921,999,10106,-.10233E-4,-.683E-5,0
STARLINK-32274,2024-154V,2026-06-13T08:59:51.470592,15.30196098,.0001182,53.1595,199.4754,79.3982,280.7152,0,U,60922,999,10099,.31518216E-4,.574E-5,0
STARLINK-32373,2024-154W,2026-06-13T09:13:32.054592,15.30215741,.00012441,53.1591,199.5308,80.4520,279.6622,0,U,60923,999,10099,-.11920422E-3,-.389E-4,0
STARLINK-11239 [DTC],2024-155A,2026-06-13T10:10:22.255680,15.69708036,.00012099,53.1579,229.6785,53.1528,306.9601,0,U,60924,999,10343,.5653502E-5,.96E-6,0
STARLINK-11245 [DTC],2024-155B,2026-06-13T11:20:53.278368,15.69690930,.00010308,53.1590,229.2649,57.1248,302.9869,0,U,60925,999,10344,-.15507477E-4,-.2465E-4,0
STARLINK-11244 [DTC],2024-155C,2026-06-13T11:06:45.747072,15.69687018,.00008031,53.1579,229.2014,98.5127,261.5982,0,U,60926,999,10349,-.23242415E-4,-.34E-4,0
STARLINK-11243 [DTC],2024-155D,2026-06-13T11:13:49.602144,15.69689370,.00009172,53.1586,229.2330,90.1228,269.9895,0,U,60927,999,10344,-.1602327E-4,-.2527E-4,0
STARLINK-11238 [DTC],2024-155E,2026-06-13T10:59:41.759808,15.69690838,.00007775,53.1579,229.1671,81.4565,278.6541,0,U,60928,999,10349,-.16760489E-4,-.2616E-4,0
STARLINK-11240 [DTC],2024-155F,2026-06-13T10:52:37.968672,15.69687100,.00010984,53.1587,229.1361,70.3689,289.7447,0,U,60929,999,10344,-.20715813E-4,-.3095E-4,0
STARLINK-11251 [DTC],2024-155G,2026-06-13T10:45:32.949792,15.69706699,.00011644,53.1598,229.1034,76.6191,283.4957,0,U,60930,999,10344,-.3590358E-5,-.1023E-4,0
STARLINK-11204 [DTC],2024-155H,2026-06-13T10:38:29.240736,15.69705805,.0001163,53.1576,229.0694,70.2013,289.9130,0,U,60931,999,10344,-.2450986E-5,-.885E-5,0
STARLINK-11246 [DTC],2024-155J,2026-06-13T10:31:25.627584,15.69703809,.00011139,53.1586,229.0352,54.9972,305.1150,0,U,60932,999,10344,.2452894E-5,-.291E-5,0
STARLINK-11207 [DTC],2024-155K,2026-06-13T10:24:22.690080,15.69695135,.00012787,53.1590,229.0041,71.3848,288.7309,0,U,60933,999,10344,.724295E-6,-.501E-5,0
STARLINK-11237 [DTC],2024-155L,2026-06-13T10:17:17.686752,15.69700532,.00009378,53.1578,228.9678,110.6680,249.4438,0,U,60934,999,10345,-.6348369E-5,-.1357E-4,0
STARLINK-11253 [DTC],2024-155M,2026-06-13T11:35:00.521952,15.69698894,.00010131,53.1593,229.3272,101.4470,258.6662,0,U,60935,999,10344,-.43416031E-4,-.5842E-4,0
STARLINK-11241 [DTC],2024-155N,2026-06-13T11:27:56.581344,15.69702045,.00010403,53.1587,229.2939,84.9240,275.1896,0,U,60936,999,10344,-.43212505E-4,-.5818E-4,0
STARLINK-32259,2024-155P,2026-06-13T20:47:41.986752,15.30185535,.0001282,53.1609,43.1067,81.8318,278.2829,0,U,60937,999,10106,-.3247E-4,-.132E-4,0
STARLINK-32262,2024-155Q,2026-06-13T20:00:01.999008,15.86141500,.000071,53.1374,357.0877,62.4094,37.4013,0,U,60938,999,593,.10061E-2,.261841E-2,0
STARLINK-32258,2024-155R,2026-06-12T23:02:22.746336,15.34400206,.00015078,53.1623,46.6960,112.5922,247.5240,0,U,60939,999,10088,.85324335E-4,.2507E-4,0
STARLINK-32251,2024-155S,2026-06-13T19:55:04.681920,15.34376944,.0001442,53.1625,42.8739,99.7383,260.3782,0,U,60940,999,10106,-.16099E-4,-.92E-5,0
STARLINK-32224,2024-155T,2026-06-13T20:00:01.999008,15.34405017,.0001345,53.1611,42.9967,90.7039,218.6034,0,U,60941,999,585,.39182E-4,.948E-5,0
STARLINK-32184,2024-155U,2026-06-13T21:01:35.427072,15.34388793,.0001263,53.1597,42.4601,93.4157,266.6990,0,U,60942,999,10102,.55797E-4,.1509E-4,0
STARLINK-32288,2024-155V,2026-06-13T21:04:38.640000,15.34363354,.0001267,53.1616,42.4647,110.9346,249.1792,0,U,60943,999,10102,-.15216E-3,-.5507E-4,0
STARLINK-32276,2024-155W,2026-06-13T20:34:26.596128,15.34130573,.0000116,53.1612,43.0398,136.1494,223.9518,0,U,60944,999,10111,.34781E-2,.117984E-2,0
