STARLINK-32356          
1 60921U 24154U   26164.79828991 -.00000683  00000+0 -10233-4 0  9997
2 60921  53.1602 197.1406 0001114  91.2459 268.8670 15.31698886101062
STARLINK-32274          
1 60922U 24154V   26164.37490128  .00000574  00000+0  31518-4 0  9995
2 60922  53.1595 199.4754 0001182  79.3982 280.7152 15.30196098100994
STARLINK-32373          
1 60923U 24154W   26164.38439878 -.00003890  00000+0 -11920-3 0  9992
2 60923  53.1591 199.5308 0001244  80.4520 279.6622 15.30215741100993
STARLINK-11239 [DTC]    
1 60924U 24155A   26164.42386870  .00000096  00000+0  56535-5 0  9998
2 60924  53.1579 229.6785 0001209  53.1528 306.9601 15.69708036103439
STARLINK-11245 [DTC]    
1 60925U 24155B   26164.47283887 -.00002465  00000+0 -15507-4 0  9995
2 60925  53.1590 229.2649 0001030  57.1248 302.9869 15.69690930103449
STARLINK-11244 [DTC]    
1 60926U 24155C   26164.46302948 -.00003400  00000+0 -23242-4 0  9990
2 60926  53.1579 229.2014 0000803  98.5127 261.5982 15.69687018103499
STARLINK-11243 [DTC]    
1 60927U 24155D   26164.46793521 -.00002527  00000+0 -16023-4 0  9990
2 60927  53.1586 229.2330 0000917  90.1228 269.9895 15.69689370103448
STARLINK-11238 [DTC]    
1 60928U 24155E   26164.45812222 -.00002616  00000+0 -16760-4 0  9997
2 60928  53.1579 229.1671 0000777  81.4565 278.6541 15.69690838103490
STARLINK-11240 [DTC]    
1 60929U 24155F   26164.45321723 -.00003095  00000+0 -20716-4 0  9997
2 60929  53.1587 229.1361 0001098  70.3689 289.7447 15.69687100103448
STARLINK-11251 [DTC]    
1 60930U 24155G   26164.44829803 -.00001023  00000+0 -35904-5 0  9995
2 60930  53.1598 229.1034 0001164  76.6191 283.4957 15.69706699103442
STARLINK-11204 [DTC]    
1 60931U 24155H   26164.44339399 -.00000885  00000+0 -24510-5 0  9998
2 60931  53.1576 229.0694 0001163  70.2013 289.9130 15.69705805103444
STARLINK-11246 [DTC]    
1 60932U 24155J   26164.43849106 -.00000291  00000+0  24529-5 0  9990
2 60932  53.1586 229.0352 0001113  54.9972 305.1150 15.69703809103440
STARLINK-11207 [DTC]    
1 60933U 24155K   26164.43359595 -.00000501  00000+0  72429-6 0  9996
2 60933  53.1590 229.0041 0001278  71.3848 288.7309 15.69695135103442
STARLINK-11237 [DTC]    
1 60934U 24155L   26164.42867693 -.00001357  00000+0 -63484-5 0  9990
2 60934  53.1578 228.9678 0000937 110.6680 249.4438 15.69700532103451
STARLINK-11253 [DTC]    
1 60935U 24155M   26164.48264493 -.00005842  00000+0 -43416-4 0  9991
2 60935  53.1593 229.3272 0001013 101.4470 258.6662 15.69698894103442
STARLINK-11241 [DTC]    
1 60936U 24155N   26164.47773821 -.00005818  00000+0 -43213-4 0  9999
2 60936  53.1587 229.2939 0001040  84.9240 275.1896 15.69702045103442
STARLINK-32259          
1 60937U 24155P   26164.86645818 -.00001320  00000+0 -32470-4 0  9994
2 60937  53.1609  43.1067 0001282  81.8318 278.2829 15.30185535101066
STARLINK-32262          
1 60938U 24155Q   26164.83335647  .00261841  00000+0  10061-2 0  9992
2 60938  53.1374 357.0877 0000710  62.4094  37.4013 15.86141500  5937
STARLINK-32258          
1 60939U 24155R   26163.95998549  .00002507  00000+0  85324-4 0  9999
2 60939  53.1623  46.6960 0001507 112.5922 247.5240 15.34400206100881
STARLINK-32251          
1 60940U 24155S   26164.82991530 -.00000920  00000+0 -16099-4 0  9993
2 60940  53.1625  42.8739 0001442  99.7383 260.3782 15.34376944101068
STARLINK-32224          
1 60941U 24155T   26164.83335647  .00000948  00000+0  39182-4 0  9992
2 60941  53.1611  42.9967 0001345  90.7039 218.6034 15.34405017  5859
STARLINK-32184          
1 60942U 24155U   26164.87610448  .00001509  00000+0  55797-4 0  9996
2 60942  53.1597  42.4601 0001263  93.4157 266.6990 15.34388793101024
STARLINK-32288          
1 60943U 24155V   26164.87822500 -.00005507  00000+0 -15216-3 0  9996
2 60943  53.1616  42.4647 0001267 110.9346 249.1792 15.34363354101028
STARLINK-32276          
1 60944U 24155W   26164.85725227  .00117984  00000+0  34781-2 0  9991
2 60944  53.1612  43.0398 0000116 136.1494 223.9518 15.34130573101112
